ISS (ZARYA)             
1 25544U 98067A   26074.25700838  .00009576  00000+0  18620-3 0  9998
2 25544  51.6330  44.8327 0006349 192.8038 167.2790 15.48289699557191
POISK                   
1 36086U 09060A   26074.25700838  .00009576  00000+0  18620-3 0  9996
2 36086  51.6330  44.8327 0006349 192.8038 167.2790 15.48289699554449
CSS (TIANHE)            
1 48274U 21035A   26073.00269975  .00029757  00000+0  34787-3 0  9993
2 48274  41.4663 181.9138 0006689 299.3968  60.6202 15.60904690278280
ISS (NAUKA)             
1 49044U 21066A   26074.25700838  .00009576  00000+0  18620-3 0  9994
2 49044  51.6330  44.8327 0006349 192.8038 167.2790 15.48289699554458
FREGAT DEB              
1 49271U 11037PF  26074.56658630  .00015293  00000+0  21764-1 0  9993
2 49271  51.6526 283.1074 0962382  72.9535 297.4383 12.40410649213425
CSS (WENTIAN)           
1 53239U 22085A   26073.00269975  .00029757  00000+0  34787-3 0  9996
2 53239  41.4663 181.9138 0006689 299.3968  60.6202 15.60904690275611
CSS (MENGTIAN)          
1 54216U 22143A   26073.00269975  .00029757  00000+0  34787-3 0  9997
2 54216  41.4663 181.9138 0006689 299.3968  60.6202 15.60904690275583
PROGRESS-MS 31          
1 64751U 25146A   26074.25700838  .00009576  00000+0  18620-3 0  9999
2 64751  51.6330  44.8327 0006349 192.8038 167.2790 15.48289699554461
TIANZHOU-9              
1 64786U 25149A   26073.00269975  .00029757  00000+0  34787-3 0  9999
2 64786  41.4663 181.9138 0006689 299.3968  60.6202 15.60904690275597
PROGRESS-MS 32          
1 65586U 25204A   26074.25700838  .00009576  00000+0  18620-3 0  9991
2 65586  51.6330  44.8327 0006349 192.8038 167.2790 15.48289699554503
YOTSUBA-KULOVER         
1 65941U 98067XN  26074.58046264  .00232112  00000+0  10156-2 0  9994
2 65941  51.6208  26.6738 0005003 110.4018 249.7523 15.83455540 24439
E-KAGAKU-1              
1 65943U 98067XQ  26074.58641328  .00223201  00000+0  99860-3 0  9997
2 65943  51.6233  26.7331 0005584 115.3994 244.7588 15.83003357 24431
HRC MONOBLOCK CAMERA    
1 66052U 98067XR  26074.58422806  .00050012  00000+0  54477-3 0  9990
2 66052  51.6283  35.7678 0003848 118.5533 241.5849 15.62895855 23317
HTV-X1                  
1 66174U 25241A   26073.34423291  .00013614  00000+0  58534-3 0  9996
2 66174  51.6357  50.7100 0005742 187.4106 172.6788 15.22910308 21666
SZ-21 MODULE            
1 66515U 25246C   26074.61177792  .00034609  00000+0  29227-3 0  9997
2 66515  41.4740 166.8918 0000819 310.4718  49.6052 15.69044572 19005
SHENZHOU-22             
1 66645U 25272A   26073.00269975  .00029757  00000+0  34787-3 0  9992
2 66645  41.4663 181.9138 0006689 299.3968  60.6202 15.60904690267527
